[{"OBJECT_NAME":"STARLINK-32666","OBJECT_ID":"2024-229Y","EPOCH":"2026-03-09T22:18:51.821280","MEAN_MOTION":15.27594617,"ECCENTRICITY":0.0002793,"INCLINATION":43.0048,"RA_OF_ASC_NODE":269.7347,"ARG_OF_PERICENTER":257.7791,"MEAN_ANOMALY":102.2748,"EPHEMERIS_TYPE":0,"CLASSIFICATION_TYPE":"U","NORAD_CAT_ID":62214,"ELEMENT_SET_NO":999,"REV_AT_EPOCH":7059,"BSTAR":0.0013159306,"MEAN_MOTION_DOT":0.00036145,"MEAN_MOTION_DDOT":0},{"OBJECT_NAME":"FLOCK 4G-21","OBJECT_ID":"2025-009AU","EPOCH":"2026-03-09T04:40:37.351200","MEAN_MOTION":15.28381075,"ECCENTRICITY":4.655e-5,"INCLINATION":97.4032,"RA_OF_ASC_NODE":151.1274,"ARG_OF_PERICENTER":329.5782,"MEAN_ANOMALY":30.5431,"EPHEMERIS_TYPE":0,"CLASSIFICATION_TYPE":"U","NORAD_CAT_ID":62651,"ELEMENT_SET_NO":999,"REV_AT_EPOCH":6367,"BSTAR":0.00049618643,"MEAN_MOTION_DOT":0.00013648,"MEAN_MOTION_DDOT":0}]
